start=new Date('2022-04-11T00:00:00.000Z').valueOf();
sats=[{"CLASSIFICATION_TYPE":"U","MEAN_MOTION_DDOT":"0.0000000000000","EPHEMERIS_TYPE":"0","OBJECT_NAME":"STARLINK-1329","TLE_LINE2":"2 45531  53.0580  43.3475 0001411  74.5444 285.5701 15.06397241109053","EPOCH":"2022-04-10T07:29:54.148128","ARG_OF_PERICENTER":"74.5444","LAUNCH_DATE":"2020-04-22","ECCENTRICITY":"0.00014110","OBJECT_TYPE":"PAYLOAD","MEAN_ELEMENT_THEORY":"SGP4","INCLINATION":"53.0580","MEAN_ANOMALY":"285.5701","OBJECT_ID":"2020-025A","FILE":"3396277","DECAY_DATE":null,"TIME_SYSTEM":"UTC","REV_AT_EPOCH":"10905","RA_OF_ASC_NODE":"43.3475","BSTAR":"-0.00004031300000","TLE_LINE1":"1 45531U 20025A   22100.31243227 -.00000882  00000-0 -40313-4 0  9991","SITE":"AFETR","SEMIMAJOR_AXIS":"6925.357","COUNTRY_CODE":"US","GP_ID":"200912628","APOAPSIS":"548.199","MEAN_MOTION":"15.06397241","CENTER_NAME":"EARTH","REF_FRAME":"TEME","MEAN_MOTION_DOT":"-0.00000882","RCS_SIZE":"LARGE","NORAD_CAT_ID":"45531","PERIOD":"95.592","PERIAPSIS":"546.245","ELEMENT_SET_NO":"999"},{"RCS_SIZE":"LARGE","MEAN_MOTION_DOT":"-0.00000679","NORAD_CAT_ID":"45532","PERIOD":"95.592","PERIAPSIS":"546.267","ELEMENT_SET_NO":"999","GP_ID":"200906204","APOAPSIS":"548.157","MEAN_MOTION":"15.06400475","CENTER_NAME":"EARTH","REF_FRAME":"TEME","DECAY_DATE":null,"TIME_SYSTEM":"UTC","TLE_LINE1":"1 45532U 20025B   22100.25714279 -.00000679  00000-0 -26726-4 0  9991","BSTAR":"-0.00002672600000","REV_AT_EPOCH":"10964","RA_OF_ASC_NODE":"43.5906","SITE":"AFETR","COUNTRY_CODE":"US","SEMIMAJOR_AXIS":"6925.347","CLASSIFICATION_TYPE":"U","MEAN_MOTION_DDOT":"0.0000000000000","EPHEMERIS_TYPE":"0","LAUNCH_DATE":"2020-04-22","ECCENTRICITY":"0.00013650","TLE_LINE2":"2 45532  53.0575  43.5906 0001365  84.4841 275.6304 15.06400475109646","EPOCH":"2022-04-10T06:10:17.137056","OBJECT_NAME":"STARLINK-1338","ARG_OF_PERICENTER":"84.4841","FILE":"3396223","OBJECT_ID":"2020-025B","MEAN_ELEMENT_THEORY":"SGP4","OBJECT_TYPE":"PAYLOAD","MEAN_ANOMALY":"275.6304","INCLINATION":"53.0575"},{"CLASSIFICATION_TYPE":"U","MEAN_MOTION_DDOT":"0.0000000000000","EPHEMERIS_TYPE":"0","ECCENTRICITY":"0.00041810","LAUNCH_DATE":"2020-04-22","ARG_OF_PERICENTER":"117.8915","TLE_LINE2":"2 45533  53.0493  17.6590 0004181 117.8915 242.2512 15.40495814110001","OBJECT_NAME":"STARLINK-1339","EPOCH":"2022-04-10T04:31:57.878976","FILE":"3396223","OBJECT_ID":"2020-025C","OBJECT_TYPE":"PAYLOAD","INCLINATION":"53.0493","MEAN_ELEMENT_THEORY":"SGP4","MEAN_ANOMALY":"242.2512","TIME_SYSTEM":"UTC","DECAY_DATE":null,"BSTAR":"0.00271430000000","TLE_LINE1":"1 45533U 20025C   22100.18886434  .00113045  00000-0  27143-2 0  9999","REV_AT_EPOCH":"11000","RA_OF_ASC_NODE":"17.6590","SITE":"AFETR","COUNTRY_CODE":"US","SEMIMAJOR_AXIS":"6822.782","GP_ID":"200906954","MEAN_MOTION":"15.40495814","APOAPSIS":"447.500","CENTER_NAME":"EARTH","REF_FRAME":"TEME","RCS_SIZE":"LARGE","MEAN_MOTION_DOT":"0.00113045","NORAD_CAT_ID":"45533","ELEMENT_SET_NO":"999","PERIOD":"93.476","PERIAPSIS":"441.794"},{"CENTER_NAME":"EARTH","REF_FRAME":"TEME","GP_ID":"200877704","APOAPSIS":"548.347","MEAN_MOTION":"15.06405904","PERIOD":"95.592","PERIAPSIS":"546.044","ELEMENT_SET_NO":"999","MEAN_MOTION_DOT":"0.00003459","RCS_SIZE":"LARGE","NORAD_CAT_ID":"45534","EPOCH":"2022-04-10T12:48:21.814848","TLE_LINE2":"2 45534  53.0549  42.3469 0001663  69.1398 290.9769 15.06405904109094","OBJECT_NAME":"STARLINK-1341","ARG_OF_PERICENTER":"69.1398","LAUNCH_DATE":"2020-04-22","ECCENTRICITY":"0.00016630","INCLINATION":"53.0549","OBJECT_TYPE":"PAYLOAD","MEAN_ELEMENT_THEORY":"SGP4","MEAN_ANOMALY":"290.9769","FILE":"3395877","OBJECT_ID":"2020-025D","CLASSIFICATION_TYPE":"U","MEAN_MOTION_DDOT":"0.0000000000000","EPHEMERIS_TYPE":"0","SITE":"AFETR","SEMIMAJOR_AXIS":"6925.330","COUNTRY_CODE":"US","DECAY_DATE":null,"TIME_SYSTEM":"UTC","RA_OF_ASC_NODE":"42.3469","REV_AT_EPOCH":"10909","TLE_LINE1":"1 45534U 20025D   22100.53358582  .00003459  00000-0  25095-3 0  9999","BSTAR":"0.00025095000000"},{"PERIOD":"95.592","PERIAPSIS":"546.202","ELEMENT_SET_NO":"999","RCS_SIZE":"LARGE","MEAN_MOTION_DOT":"0.00000924","NORAD_CAT_ID":"45535","CENTER_NAME":"EARTH","REF_FRAME":"TEME","GP_ID":"200905453","APOAPSIS":"548.203","MEAN_MOTION":"15.06403610","SITE":"AFETR","COUNTRY_CODE":"US","SEMIMAJOR_AXIS":"6925.337","DECAY_DATE":null,"TIME_SYSTEM":"UTC","TLE_LINE1":"1 45535U 20025E   22100.35297267  .00000924  00000-0  80914-4 0  9998","BSTAR":"0.00008091400000","REV_AT_EPOCH":"10966","RA_OF_ASC_NODE":"43.1594","LAUNCH_DATE":"2020-04-22","ECCENTRICITY":"0.00014440","TLE_LINE2":"2 45535  53.0546  43.1594 0001444  63.7642 296.3495 15.06403610109660","OBJECT_NAME":"STARLINK-1350","EPOCH":"2022-04-10T08:28:16.838688","ARG_OF_PERICENTER":"63.7642","FILE":"3396223","OBJECT_ID":"2020-025E","OBJECT_TYPE":"PAYLOAD","MEAN_ANOMALY":"296.3495","MEAN_ELEMENT_THEORY":"SGP4","INCLINATION":"53.0546","CLASSIFICATION_TYPE":"U","EPHEMERIS_TYPE":"0","MEAN_MOTION_DDOT":"0.0000000000000"},{"OBJECT_ID":"2020-025F","FILE":"3396296","MEAN_ELEMENT_THEORY":"SGP4","OBJECT_TYPE":"PAYLOAD","MEAN_ANOMALY":"257.1319","INCLINATION":"53.0568","ECCENTRICITY":"0.00013780","LAUNCH_DATE":"2020-04-22","ARG_OF_PERICENTER":"102.9824","OBJECT_NAME":"STARLINK-1352","TLE_LINE2":"2 45536  53.0568  42.2496 0001378 102.9824 257.1319 15.06390542109108","EPOCH":"2022-04-10T13:20:13.736256","MEAN_MOTION_DDOT":"0.0000000000000","EPHEMERIS_TYPE":"0","CLASSIFICATION_TYPE":"U","COUNTRY_CODE":"US","SEMIMAJOR_AXIS":"6925.378","SITE":"AFETR","BSTAR":"-0.00007605700000","TLE_LINE1":"1 45536U 20025F   22100.55571454 -.00001414  00000-0 -76057-4 0  9994","REV_AT_EPOCH":"10910","RA_OF_ASC_NODE":"42.2496","TIME_SYSTEM":"UTC","DECAY_DATE":null,"REF_FRAME":"TEME","CENTER_NAME":"EARTH","MEAN_MOTION":"15.06390542","APOAPSIS":"548.197","GP_ID":"200912151","ELEMENT_SET_NO":"999","PERIAPSIS":"546.288","PERIOD":"95.593","NORAD_CAT_ID":"45536","RCS_SIZE":"LARGE","MEAN_MOTION_DOT":"-0.00001414"},{"NORAD_CAT_ID":"45537","MEAN_MOTION_DOT":"0.00025229","RCS_SIZE":"LARGE","ELEMENT_SET_NO":"999","PERIAPSIS":"502.331","PERIOD":"94.711","MEAN_MOTION":"15.20410654","APOAPSIS":"506.875","GP_ID":"200939327","REF_FRAME":"TEME","CENTER_NAME":"EARTH","RA_OF_ASC_NODE":"2.9374","REV_AT_EPOCH":"11024","BSTAR":"0.00115360000000","TLE_LINE1":"1 45537U 20025G   22100.88754035  .00025229  00000-0  11536-2 0  9996","TIME_SYSTEM":"UTC","DECAY_DATE":null,"SEMIMAJOR_AXIS":"6882.738","COUNTRY_CODE":"US","SITE":"AFETR","EPHEMERIS_TYPE":"0","MEAN_MOTION_DDOT":"0.0000000000000","CLASSIFICATION_TYPE":"U","MEAN_ELEMENT_THEORY":"SGP4","OBJECT_TYPE":"PAYLOAD","INCLINATION":"53.0046","MEAN_ANOMALY":"213.8079","FILE":"3396586","OBJECT_ID":"2020-025G","ARG_OF_PERICENTER":"146.3126","TLE_LINE2":"2 45537  53.0046   2.9374 0003301 146.3126 213.8079 15.20410654110245","EPOCH":"2022-04-10T21:18:03.486240","OBJECT_NAME":"STARLINK-1353","ECCENTRICITY":"0.00033010","LAUNCH_DATE":"2020-04-22"},{"INCLINATION":"53.0564","OBJECT_TYPE":"PAYLOAD","MEAN_ANOMALY":"283.2774","MEAN_ELEMENT_THEORY":"SGP4","FILE":"3396223","OBJECT_ID":"2020-025H","ARG_OF_PERICENTER":"76.8360","TLE_LINE2":"2 45538  53.0564  43.3262 0001297  76.8360 283.2774 15.06381383109651","EPOCH":"2022-04-10T07:35:13.174080","OBJECT_NAME":"STARLINK-1362","ECCENTRICITY":"0.00012970","LAUNCH_DATE":"2020-04-22","MEAN_MOTION_DDOT":"0.0000000000000","EPHEMERIS_TYPE":"0","CLASSIFICATION_TYPE":"U","SEMIMAJOR_AXIS":"6925.406","COUNTRY_CODE":"US","SITE":"AFETR","REV_AT_EPOCH":"10965","RA_OF_ASC_NODE":"43.3262","TLE_LINE1":"1 45538U 20025H   22100.31612470 -.00001495  00000-0 -81517-4 0  9990","BSTAR":"-0.00008151700000","TIME_SYSTEM":"UTC","DECAY_DATE":null,"REF_FRAME":"TEME","CENTER_NAME":"EARTH","MEAN_MOTION":"15.06381383","APOAPSIS":"548.169","GP_ID":"200905703","ELEMENT_SET_NO":"999","PERIOD":"95.593","PERIAPSIS":"546.372","NORAD_CAT_ID":"45538","MEAN_MOTION_DOT":"-0.00001495","RCS_SIZE":"LARGE"},{"REF_FRAME":"TEME","CENTER_NAME":"EARTH","APOAPSIS":"345.501","MEAN_MOTION":"15.76743723","GP_ID":"200938326","PERIAPSIS":"333.851","PERIOD":"91.327","ELEMENT_SET_NO":"999","NORAD_CAT_ID":"45539","RCS_SIZE":"LARGE","MEAN_MOTION_DOT":"0.00013865","FILE":"3396586","OBJECT_ID":"2020-025J","OBJECT_TYPE":"PAYLOAD","INCLINATION":"53.0457","MEAN_ELEMENT_THEORY":"SGP4","MEAN_ANOMALY":"79.5670","LAUNCH_DATE":"2020-04-22","ECCENTRICITY":"0.00086710","TLE_LINE2":"2 45539  53.0457 233.2442 0008671 280.4372  79.5670 15.76743723112058","EPOCH":"2022-04-10T19:02:34.547424","OBJECT_NAME":"STARLINK-1367","ARG_OF_PERICENTER":"280.4372","MEAN_MOTION_DDOT":"0.0000000000000","EPHEMERIS_TYPE":"0","CLASSIFICATION_TYPE":"U","COUNTRY_CODE":"US","SEMIMAJOR_AXIS":"6717.811","SITE":"AFETR","BSTAR":"0.00008837500000","TLE_LINE1":"1 45539U 20025J   22100.79345541  .00013865  00000-0  88375-4 0  9996","RA_OF_ASC_NODE":"233.2442","REV_AT_EPOCH":"11205","DECAY_DATE":null,"TIME_SYSTEM":"UTC"},{"ELEMENT_SET_NO":"999","PERIOD":"95.592","PERIAPSIS":"546.122","NORAD_CAT_ID":"45540","MEAN_MOTION_DOT":"0.00002944","RCS_SIZE":"LARGE","REF_FRAME":"TEME","CENTER_NAME":"EARTH","MEAN_MOTION":"15.06406110","APOAPSIS":"548.268","GP_ID":"200912185","SEMIMAJOR_AXIS":"6925.330","COUNTRY_CODE":"US","SITE":"AFETR","REV_AT_EPOCH":"10910","RA_OF_ASC_NODE":"42.2273","BSTAR":"0.00021643000000","TLE_LINE1":"1 45540U 20025K   22100.55938186  .00002944  00000-0  21643-3 0  9995","TIME_SYSTEM":"UTC","DECAY_DATE":null,"OBJECT_TYPE":"PAYLOAD","MEAN_ELEMENT_THEORY":"SGP4","MEAN_ANOMALY":"298.8411","INCLINATION":"53.0563","FILE":"3396281","OBJECT_ID":"2020-025K","ARG_OF_PERICENTER":"61.2733","TLE_LINE2":"2 45540  53.0563  42.2273 0001549  61.2733 298.8411 15.06406110109101","EPOCH":"2022-04-10T13:25:30.592704","OBJECT_NAME":"STARLINK-1368","ECCENTRICITY":"0.00015490","LAUNCH_DATE":"2020-04-22","EPHEMERIS_TYPE":"0","MEAN_MOTION_DDOT":"0.0000000000000","CLASSIFICATION_TYPE":"U"}];
